NORAD_CAT_ID,OBJECT_NAME,OBJECT_TYPE,EPOCH,MEAN_MOTION,ECCENTRICITY,INCLINATION,RA_OF_ASC_NODE,ARG_OF_PERICENTER,MEAN_ANOMALY,BSTAR,MEAN_MOTION_DOT,MEAN_MOTION_DDOT,TLE_LINE0,TLE_LINE1,TLE_LINE2,SEMIMAJOR_AXIS,PERIOD,APOGEE,PERIGEE,DECAYED
53626.0,STARLINK-4554,PAYLOAD,2023-01-30 00:30:00,15.08838224,0.0001057,53.2149,287.4953,88.4193,271.692,2.0287e-05,3.5e-07,0.0,0 STARLINK-4554,1 53626U 22104AQ  23030.02084149  .00000035  00000-0  20287-4 0  9998,2 53626  53.2149 287.4953 0001057  88.4193 271.6920 15.08838224 23779,6917.886,95.438,540.482,539.02,0.0
53626.0,STARLINK-4554,PAYLOAD,2023-01-30 19:34:38,15.08819587,9.44e-05,53.2146,283.928,109.0853,251.0241,0.00026258,3.891e-05,0.0,0 STARLINK-4554,1 53626U 22104AQ  23030.81572090  .00003891  00000-0  26258-3 0  9998,2 53626  53.2146 283.9280 0000944 109.0853 251.0241 15.08819587 24586,6917.943,95.439,540.461,539.155,0.0
53626.0,STARLINK-4554,PAYLOAD,2023-01-31 00:20:47,15.08848436,0.0001107,53.2146,283.0344,97.9771,262.1347,2.3571e-05,8.7e-07,0.0,0 STARLINK-4554,1 53626U 22104AQ  23031.01443499  .00000087  00000-0  23571-4 0  9991,2 53626  53.2146 283.0344 0001107  97.9771 262.1347 15.08848436 23926,6917.855,95.437,540.485,538.954,0.0
53626.0,STARLINK-4554,PAYLOAD,2023-01-31 11:28:29,15.08838792,0.0001352,53.2137,280.9558,68.7927,291.3209,1.7809e-05,-4e-08,0.0,0 STARLINK-4554,1 53626U 22104AQ  23031.47812159 -.00000004  00000-0  17809-4 0  9991,2 53626  53.2137 280.9558 0001352  68.7927 291.3209 15.08838792 23992,6917.884,95.438,540.684,538.814,0.0
53626.0,STARLINK-4554,PAYLOAD,2023-01-31 22:36:11,15.08838618,0.0001142,53.2142,278.8717,84.629,275.4832,-8.6692e-06,-4.26e-06,0.0,0 STARLINK-4554,1 53626U 22104AQ  23031.94180160 -.00000426  00000-0 -86692-5 0  9999,2 53626  53.2142 278.8717 0001142  84.6290 275.4832 15.08838618 24755,6917.885,95.438,540.54,538.96,0.0
53626.0,STARLINK-4554,PAYLOAD,2023-02-01 01:46:57,15.08846559,0.000114,53.2134,278.2765,93.198,266.9143,2.1086e-05,4.8e-07,0.0,0 STARLINK-4554,1 53626U 22104AQ  23032.07427459  .00000048  00000-0  21086-4 0  9992,2 53626  53.2134 278.2765 0001140  93.1980 266.9143 15.08846559 24081,6917.86,95.437,540.514,538.937,0.0
53626.0,STARLINK-4554,PAYLOAD,2023-02-02 01:37:45,15.08836167,0.0001221,53.2138,273.8157,85.8699,274.2432,-6.3559e-05,-1.299e-05,0.0,0 STARLINK-4554,1 53626U 22104AQ  23033.06788657 -.00001299  00000-0 -63559-4 0  9994,2 53626  53.2138 273.8157 0001221  85.8699 274.2432 15.08836167 24230,6917.892,95.438,540.602,538.912,0.0
53626.0,STARLINK-4554,PAYLOAD,2023-02-02 22:17:44,15.08847454,0.0001182,53.2138,269.9496,84.4111,275.7015,9.0196e-05,1.148e-05,0.0,0 STARLINK-4554,1 53626U 22104AQ  23033.92899291  .00001148  00000-0  90196-4 0  9994,2 53626  53.2138 269.9496 0001182  84.4111 275.7015 15.08847454 24360,6917.858,95.437,540.54,538.905,0.0
53626.0,STARLINK-4554,PAYLOAD,2023-02-03 15:47:00,15.08812535,4.02e-05,53.2178,266.6808,5.863,354.2367,0.00029908,4.472e-05,0.0,0 STARLINK-4554,1 53626U 22104AQ  23034.65764106  .00004472  00000-0  29908-3 0  9996,2 53626  53.2178 266.6808 0000402   5.8630 354.2367 15.08812535 24479,6917.964,95.439,540.107,539.551,0.0
53626.0,STARLINK-4554,PAYLOAD,2023-02-04 10:51:38,15.08838871,0.0001312,53.2128,263.1094,93.2677,266.8465,-3.7914e-05,-8.91e-06,0.0,0 STARLINK-4554,1 53626U 22104AQ  23035.45252398 -.00000891  00000-0 -37914-4 0  9990,2 53626  53.2128 263.1094 0001312  93.2677 266.8465 15.08838871 24597,6917.884,95.438,540.656,538.841,0.0
53626.0,STARLINK-4554,PAYLOAD,2023-02-04 14:02:24,15.08838588,0.0001036,53.2141,262.5164,94.7819,265.3291,-1.9811e-05,-6.03e-06,0.0,0 STARLINK-4554,1 53626U 22104AQ  23035.58500276 -.00000603  00000-0 -19811-4 0  9992,2 53626  53.2141 262.5164 0001036  94.7819 265.3291 15.08838588 25306,6917.885,95.438,540.466,539.033,0.0
53626.0,STARLINK-4554,PAYLOAD,2023-02-04 21:59:19,15.08845795,0.0001172,53.2134,261.029,88.6705,271.4421,-5.6087e-05,-1.181e-05,0.0,0 STARLINK-4554,1 53626U 22104AQ  23035.91619988 -.00001181  00000-0 -56087-4 0  9998,2 53626  53.2134 261.0290 0001172  88.6705 271.4421 15.08845795 25355,6917.863,95.437,540.538,538.917,0.0
53626.0,STARLINK-4554,PAYLOAD,2023-02-05 13:53:11,15.088303,0.0001152,53.2132,258.0553,92.5767,267.5357,-6.4412e-06,-3.9e-06,0.0,0 STARLINK-4554,1 53626U 22104AQ  23036.57860791 -.00000390  00000-0 -64412-5 0  9994,2 53626  53.2132 258.0553 0001152  92.5767 267.5357 15.08830300 24765,6917.91,95.438,540.572,538.978,0.0
53626.0,STARLINK-4554,PAYLOAD,2023-02-05 21:50:07,15.08831564,0.0001121,53.2133,256.5683,92.2292,267.8828,3.7018e-06,-2.29e-06,0.0,0 STARLINK-4554,1 53626U 22104AQ  23036.90980837 -.00000229  00000-0  37018-5 0  9997,2 53626  53.2133 256.5683 0001121  92.2292 267.8828 15.08831564 25501,6917.906,95.438,540.547,538.996,0.0
53626.0,STARLINK-4554,PAYLOAD,2023-02-06 20:05:31,15.08836321,0.0001125,53.2132,252.4048,86.588,273.5241,5.8124e-05,6.37e-06,0.0,0 STARLINK-4554,1 53626U 22104AQ  23037.83716566  .00000637  00000-0  58124-4 0  9998,2 53626  53.2132 252.4048 0001125  86.5880 273.5241 15.08836321 24950,6917.892,95.438,540.535,538.978,0.0
53626.0,STARLINK-4554,PAYLOAD,2023-02-06 23:16:16,15.08845092,0.0001108,53.2132,251.8096,92.9043,267.2076,4.8379e-05,4.82e-06,0.0,0 STARLINK-4554,1 53626U 22104AQ  23037.96963979  .00000482  00000-0  48379-4 0  9993,2 53626  53.2132 251.8096 0001108  92.9043 267.2076 15.08845092 24972,6917.865,95.437,540.496,538.963,0.0
53626.0,STARLINK-4554,PAYLOAD,2023-02-07 21:31:42,15.08823097,0.0001071,53.2131,247.6463,98.1756,261.9358,-4.1231e-05,-9.44e-06,0.0,0 STARLINK-4554,1 53626U 22104AQ  23038.89702346 -.00000944  00000-0 -41231-4 0  9990,2 53626  53.2131 247.6463 0001071  98.1756 261.9358 15.08823097 25112,6917.932,95.439,540.538,539.056,0.0
53626.0,STARLINK-4554,PAYLOAD,2023-02-08 19:47:05,15.08836198,8.46e-05,53.2125,243.4855,95.5305,264.5784,9.1772e-05,1.173e-05,0.0,0 STARLINK-4554,1 53626U 22104AQ  23039.82437281  .00001173  00000-0  91772-4 0  9995,2 53626  53.2125 243.4855 0000846  95.5305 264.5784 15.08836198 25257,6917.892,95.438,540.342,539.172,0.0
53626.0,STARLINK-4554,PAYLOAD,2023-02-09 19:37:52,15.08838064,0.0001057,53.2131,239.023,77.5722,282.5388,0.00015491,2.178e-05,0.0,0 STARLINK-4554,1 53626U 22104AQ  23040.81796995  .00002178  00000-0  15491-3 0  9995,2 53626  53.2131 239.0230 0001057  77.5722 282.5388 15.08838064 26097,6917.886,95.438,540.483,539.02,0.0
53626.0,STARLINK-4554,PAYLOAD,2023-02-10 14:42:30,15.08845808,0.0001105,53.2136,235.4535,79.662,280.4496,-3.255e-05,-8.06e-06,0.0,0 STARLINK-4554,1 53626U 22104AQ  23041.61284996 -.00000806  00000-0 -32550-4 0  9991,2 53626  53.2136 235.4535 0001105  79.6620 280.4496 15.08845808 25522,6917.863,95.437,540.492,538.963,0.0
53626.0,STARLINK-4554,PAYLOAD,2023-02-10 16:17:53,15.08846026,0.0001092,53.2136,235.1561,79.0651,281.0464,-2.9889e-05,-7.64e-06,0.0,0 STARLINK-4554,1 53626U 22104AQ  23041.67908937 -.00000764  00000-0 -29889-4 0  9999,2 53626  53.2136 235.1561 0001092  79.0651 281.0464 15.08846026 26224,6917.862,95.437,540.482,538.972,0.0
53626.0,STARLINK-4554,PAYLOAD,2023-02-11 08:11:44,15.08841006,0.0001076,53.2138,232.1826,79.1465,280.9648,-7.9175e-05,-1.548e-05,0.0,0 STARLINK-4554,1 53626U 22104AQ  23042.34149184 -.00001548  00000-0 -79175-4 0  9999,2 53626  53.2138 232.1826 0001076  79.1465 280.9648 15.08841006 26329,6917.877,95.437,540.487,538.998,0.0
53626.0,STARLINK-4554,PAYLOAD,2023-02-11 19:19:26,15.0883984,9.3e-05,53.2134,230.1002,84.7385,275.3713,-6.3072e-05,-1.291e-05,0.0,0 STARLINK-4554,1 53626U 22104AQ  23042.80517114 -.00001291  00000-0 -63072-4 0  9996,2 53626  53.2134 230.1002 0000930  84.7385 275.3713 15.08839840 25705,6917.881,95.438,540.389,539.103,0.0
53626.0,STARLINK-4554,PAYLOAD,2023-02-12 12:48:41,15.08834014,9.36e-05,53.2139,226.8297,90.8015,269.3084,-4.0579e-05,-9.33e-06,0.0,0 STARLINK-4554,1 53626U 22104AQ  23043.53381446 -.00000933  00000-0 -40579-4 0  9993,2 53626  53.2139 226.8297 0000936  90.8015 269.3084 15.08834014 26503,6917.899,95.438,540.411,539.116,0.0
53626.0,STARLINK-4554,PAYLOAD,2023-02-13 12:39:28,15.08830984,8.46e-05,53.2141,222.3688,91.4549,268.654,2.9958e-05,1.89e-06,0.0,0 STARLINK-4554,1 53626U 22104AQ  23044.52741551  .00000189  00000-0  29958-4 0  9999,2 53626  53.2141 222.3688 0000846  91.4549 268.6540 15.08830984 25960,6917.908,95.438,540.358,539.188,0.0
53626.0,STARLINK-4554,PAYLOAD,2023-02-13 19:00:59,15.08886839,5.2e-05,53.2141,221.1793,70.6012,289.5036,-0.00062831,-0.00010286,0.0,0 STARLINK-4554,1 53626U 22104AQ  23044.79235883 -.00010286  00000-0 -62831-3 0  9991,2 53626  53.2141 221.1793 0000520  70.6012 289.5036 15.08886839 26005,6917.737,95.435,539.962,539.243,0.0
53626.0,STARLINK-4554,PAYLOAD,2023-02-14 04:33:19,15.08837134,8.26e-05,53.2145,219.3952,89.3391,270.7696,1.5343e-05,-4.3e-07,0.0,0 STARLINK-4554,1 53626U 22104AQ  23045.18981372 -.00000043  00000-0  15343-4 0  9992,2 53626  53.2145 219.3952 0000826  89.3391 270.7696 15.08837134 26065,6917.889,95.438,540.326,539.183,0.0
53626.0,STARLINK-4554,PAYLOAD,2023-02-14 14:05:39,15.08832046,8.43e-05,53.2144,217.6108,88.812,271.2968,3.2371e-05,2.27e-06,0.0,0 STARLINK-4554,1 53626U 22104AQ  23045.58725747  .00000227  00000-0  32371-4 0  9991,2 53626  53.2144 217.6108 0000843  88.8120 271.2968 15.08832046 26819,6917.905,95.438,540.353,539.187,0.0
53626.0,STARLINK-4554,PAYLOAD,2023-02-15 05:59:29,15.08840292,7.24e-05,53.2142,214.637,82.7895,277.3179,5.4053e-05,5.73e-06,0.0,0 STARLINK-4554,1 53626U 22104AQ  23046.24965188  .00000573  00000-0  54053-4 0  9995,2 53626  53.2142 214.6370 0000724  82.7895 277.3179 15.08840292 26223,6917.879,95.438,540.245,539.244,0.0
53626.0,STARLINK-4554,PAYLOAD,2023-02-15 20:17:57,15.08854313,8.39e-05,53.2148,211.9597,63.1164,296.9914,0.00012202,1.656e-05,0.0,0 STARLINK-4554,1 53626U 22104AQ  23046.84579935  .00001656  00000-0  12202-3 0  9994,2 53626  53.2148 211.9597 0000839  63.1164 296.9914 15.08854313 26312,6917.837,95.437,540.282,539.121,0.0
